     2.100          NAVIGATION                              RINEX VERSION / TYPE
fic2rin                                 04/03/2014 00:41:03 PGM / RUN BY / DATE
                                                            END OF HEADER
24 14  4  2 12  0  0.0 -.259885564446D-04 -.682121026330D-12  .000000000000D+00
     .450000000000D+02 -.585312500000D+02  .481662920337D-08 -.633342317798D+00
    -.317022204399D-05  .202327687293D-02  .284798443317D-05  .515373936462D+04
     .302400000000D+06  .108033418655D-06  .243336993032D+01  .447034835815D-07
     .957108665955D+00  .323562500000D+03  .300718509767D+00 -.849642533879D-08
    -.382515933324D-09  .100000000000D+01  .178600000000D+04  .000000000000D+00
     .240000000000D+01  .000000000000D+00  .325962901115D-08  .450000000000D+02
     .295206000000D+06  .400000000000D+01
25 14  4  2 12  0  0.0  .205878168344D-04  .113686837722D-11  .000000000000D+00
     .940000000000D+02 -.704687500000D+02  .372265506353D-08 -.269540024608D+01
    -.362470746040D-05  .342086574528D-02  .114291906357D-04  .515363774300D+04
     .302400000000D+06 -.298023223877D-07 -.279613273273D+01  .372529029846D-07
     .976130505514D+00  .168500000000D+03  .627578843349D+00 -.757995859284D-08
     .111790370803D-09  .100000000000D+01  .178600000000D+04  .000000000000D+00
     .240000000000D+01  .000000000000D+00  .558793544769D-08  .940000000000D+02
     .295206000000D+06  .400000000000D+01
26 14  4  2 12  0  0.0  .120752956718D-03 -.112549969344D-10  .000000000000D+00
     .390000000000D+02  .930000000000D+02  .453233164695D-08  .310130279542D-01
     .508315861225D-05  .214858882828D-01  .526756048203D-05  .515368889809D+04
     .302400000000D+06 -.249594449997D-06  .149334752287D+01  .160187482834D-06
     .975243138906D+00  .286531250000D+03  .127482511639D+01 -.862143054576D-08
     .202508435289D-09  .100000000000D+01  .178600000000D+04  .000000000000D+00
     .240000000000D+01  .000000000000D+00 -.605359673500D-08  .390000000000D+02
     .295206000000D+06  .400000000000D+01
27 14  4  2 12  0  0.0 -.203116796911D-04  .341060513165D-12  .000000000000D+00
     .970000000000D+02  .420625000000D+02  .466876590141D-08  .140001682677D+01
     .203959643841D-05  .104255694896D-02  .724196434021D-05  .515366964912D+04
     .302400000000D+06 -.130385160446D-07 -.174849967473D+01  .279396772385D-07
     .962523995159D+00  .240781250000D+03  .495305864849D-01 -.814783939022D-08
     .573238163385D-09  .100000000000D+01  .178600000000D+04  .000000000000D+00
     .240000000000D+01  .000000000000D+00  .186264514923D-08  .970000000000D+02
     .295206000000D+06  .400000000000D+01
28 14  4  2 12  0  0.0  .344217754900D-03  .284217094304D-11  .000000000000D+00
     .180000000000D+02 -.802500000000D+02  .347478759599D-08  .208910344487D+01
    -.415928661823D-05  .191581322579D-01  .124257057905D-04  .515367181778D+04
     .302400000000D+06  .271946191788D-06 -.273000674212D+01 -.296160578728D-06
     .986509470411D+00  .148937500000D+03 -.171737833817D+01 -.729066082814D-08
     .140362989539D-09  .100000000000D+01  .178600000000D+04  .000000000000D+00
     .240000000000D+01  .000000000000D+00 -.107102096081D-07  .180000000000D+02
     .295206000000D+06  .400000000000D+01
29 14  4  2 12  0  0.0  .522584654391D-03  .284217094304D-11  .000000000000D+00
     .870000000000D+02  .350312500000D+02  .446411451972D-08 -.220086897734D+01
     .196509063244D-05  .167635781690D-02  .709109008312D-05  .515372709465D+04
     .302400000000D+06 -.149011611938D-07 -.169426653076D+01 -.130385160446D-07
     .968504218477D+00  .246281250000D+03 -.938824381415D+00 -.802676291832D-08
     .618240037893D-09  .100000000000D+01  .178600000000D+04  .000000000000D+00
     .240000000000D+01  .000000000000D+00 -.931322574615D-08  .870000000000D+02
     .295206000000D+06  .400000000000D+01
31 14  4  2 12  0  0.0  .334077980369D-03  .113686837722D-12  .000000000000D+00
     .320000000000D+02 -.706250000000D+02  .430910806308D-08 -.165337468620D+01
    -.363402068615D-05  .810289080255D-02  .380352139473D-05  .515380140877D+04
     .302400000000D+06 -.117346644402D-06  .247300757426D+01 -.763684511185D-07
     .978701328027D+00  .318000000000D+03 -.633366299414D+00 -.826355849609D-08
    -.300726812193D-09  .100000000000D+01  .178600000000D+04  .000000000000D+00
     .240000000000D+01  .000000000000D+00 -.130385160446D-07  .320000000000D+02
     .295206000000D+06  .400000000000D+01
32 14  4  2 12  0  0.0 -.457409769297D-03  .750333128963D-11  .000000000000D+00
     .500000000000D+02  .517187500000D+02  .479127100424D-08 -.900907234471D+00
     .263191759586D-05  .114209288731D-01  .113975256681D-04  .515377327538D+04
     .302400000000D+06  .707805156708D-07  .433885480432D+00 -.165775418282D-06
     .948396034970D+00  .157125000000D+03 -.174615600389D+00 -.809140846821D-08
    -.350014579512D-10  .100000000000D+01  .178600000000D+04  .000000000000D+00
     .240000000000D+01  .000000000000D+00 -.325962901115D-08  .500000000000D+02
     .295206000000D+06  .400000000000D+01
 8 14  4  2 11 59 44.0  .126669183373D-04  .227373675443D-12  .000000000000D+00
     .320000000000D+02 -.850937500000D+02  .379801534544D-08 -.208617947393D+01
    -.450015068054D-05  .135726016015D-01  .444240868092D-05  .515348395348D+04
     .302384000000D+06 -.372529029846D-08  .256527402086D+01 -.121071934700D-06
     .997015099144D+00  .311875000000D+03 -.278225729854D+01 -.785997025645D-08
    -.258225041824D-09  .100000000000D+01  .178600000000D+04  .000000000000D+00
     .240000000000D+01  .000000000000D+00 -.419095158577D-08  .320000000000D+02
     .298656000000D+06  .400000000000D+01
23 14  4  2 11 59 44.0 -.900682061911D-05 -.318323145621D-11  .000000000000D+00
     .220000000000D+02  .105687500000D+03  .493734851753D-08  .128754139721D+00
     .541284680367D-05  .907463789918D-02  .447221100330D-05  .515357415581D+04
     .302384000000D+06  .109896063805D-06  .140602128040D+01  .745058059692D-07
     .952109614479D+00  .284593750000D+03 -.279980097787D+01 -.860142971264D-08
     .167864135072D-09  .100000000000D+01  .178600000000D+04  .000000000000D+00
     .240000000000D+01  .000000000000D+00 -.200234353542D-07  .220000000000D+02
     .300456000000D+06  .400000000000D+01
 8 14  4  2 13 59 44.0  .126683153212D-04  .227373675443D-12  .000000000000D+00
     .330000000000D+02 -.803125000000D+02  .384730311276D-08 -.103589977183D+01
    -.427477061749D-05  .135722447885D-01  .450760126114D-05  .515348364258D+04
     .309584000000D+06  .230967998505D-06  .256521804084D+01 -.130385160446D-06
     .997012584387D+00  .309343750000D+03 -.278224604724D+01 -.795926010656D-08
    -.408231290186D-09  .100000000000D+01  .178600000000D+04  .000000000000D+00
     .240000000000D+01  .000000000000D+00 -.419095158577D-08  .330000000000D+02
     .302406000000D+06  .400000000000D+01
23 14  4  2 13 59 44.0 -.902963802218D-05 -.318323145621D-11  .000000000000D+00
     .230000000000D+02  .105468750000D+03  .499413659726D-08  .117896014733D+01
     .576116144657D-05  .907466374338D-02  .487081706524D-05  .515357461548D+04
     .309584000000D+06  .149011611938D-07  .140596000900D+01  .128522515297D-06
     .952110742388D+00  .280406250000D+03 -.279976207157D+01 -.853964142463D-08
     .107147320259D-09  .100000000000D+01  .178600000000D+04  .000000000000D+00
     .240000000000D+01  .000000000000D+00 -.200234353542D-07  .230000000000D+02
     .302406000000D+06  .400000000000D+01
 1 14  4  2 14  0  0.0  .687036663294D-05  .170530256582D-11  .000000000000D+00
     .270000000000D+02 -.409062500000D+02  .492056210402D-08  .155884384136D+00
    -.209920108318D-05  .285285257269D-02  .585615634918D-05  .515367673302D+04
     .309600000000D+06  .130385160446D-07 -.693538350965D+00  .372529029846D-08
     .960783184088D+00  .268218750000D+03  .324561221769D+00 -.829070248389D-08
    -.295369446180D-09  .100000000000D+01  .178600000000D+04  .000000000000D+00
     .240000000000D+01  .000000000000D+00  .651925802231D-08  .270000000000D+02
     .302406000000D+06  .400000000000D+01
 2 14  4  2 14  0  0.0  .487426295877D-03  .216004991671D-11  .000000000000D+00
     .740000000000D+02 -.285625000000D+02  .551022952318D-08  .774570350364D+00
    -.157207250595D-05  .134210014949D-01  .562891364098D-05  .515357242393D+04
     .309600000000D+06 -.150874257088D-06 -.721926707854D+00  .169500708580D-06
     .939295190878D+00  .260906250000D+03 -.245080736962D+01 -.866714673574D-08
    -.362515100209D-09  .100000000000D+01  .178600000000D+04  .000000000000D+00
     .240000000000D+01  .000000000000D+00 -.200234353542D-07  .740000000000D+02
     .302406000000D+06  .400000000000D+01
 3 14  4  2 14  0  0.0  .346552114934D-03  .488853402203D-11  .000000000000D+00
     .156000000000D+03  .324687500000D+02  .516235789007D-08  .956455987980D+00
     .162981450558D-05  .168321464444D-01  .868923962116D-05  .515377963257D+04
     .309600000000D+06 -.281259417534D-06 -.189639448245D+01 -.987201929092D-07
     .937488659674D+00  .204093750000D+03  .137236469072D+01 -.864536011395D-08
     .478234206089D-09  .100000000000D+01  .178600000000D+04  .000000000000D+00
     .240000000000D+01  .000000000000D+00 -.465661287308D-08  .156000000000D+03
     .302406000000D+06  .400000000000D+01
 4 14  4  2 14  0  0.0  .640004873276D-05  .113686837722D-12  .000000000000D+00
     .400000000000D+02 -.380937500000D+02  .537558105739D-08 -.211512455161D+01
    -.209547579288D-05  .105571042513D-01  .531226396561D-05  .515370837212D+04
     .309600000000D+06  .130385160446D-06 -.705852262014D+00  .372529029846D-08
     .938327720727D+00  .256187500000D+03  .108643560540D+01 -.836820571221D-08
    -.144648882349D-09  .100000000000D+01  .178600000000D+04  .000000000000D+00
     .240000000000D+01  .000000000000D+00 -.605359673500D-08  .400000000000D+02
     .302406000000D+06  .400000000000D+01
